STARLINK-32743          
1 62480U 24254U   26068.19982302  .00025478  00000+0  93197-3 0  9990
2 62480  42.9994  18.6534 0002906 253.1247 106.9286 15.27585096 67583
TRANSPORTER-13 OBJECT AH
1 63241U 25052AH  26068.64880921  .00014108  00000+0  55931-3 0  9999
2 63241  97.3962 323.1443 0008070 138.7508 221.4341 15.25468797 54753
